ORBCOMM FM33 [-]        
1 25983U 99065D   23337.59617248  .00002505  00000+0  88318-3 0  9998
2 25983  45.0266 142.2429 0009058 122.8124 350.1535 14.37053457255203
ORBCOMM FM36 [-]        
1 25984U 99065E   23337.58682192  .00002069  00000+0  77020-3 0  9991
2 25984  45.0390 225.0510 0004339 359.0912   0.9927 14.34923577253679
ORBCOMM FM35 [+]        
1 25985U 99065F   23337.58830711  .00001796  00000+0  67969-3 0  9991
2 25985  45.0391 227.2479 0002673  92.4662 267.6491 14.34594830254077
ORBCOMM FM34 [-]        
1 25986U 99065G   23337.55412222  .00001748  00000+0  66316-3 0  9994
2 25986  45.0385 227.9000 0004151  38.4645 321.6498 14.34548650254181
ORBCOMM FM38 [-]        
1 33060U 08031A   23337.58608477  .00003697  00000+0  55381-3 0  9996
2 33060  48.4401 100.9608 0005333 162.6385 197.4712 14.76526360831636
ORBCOMM FM41 [-]        
1 33061U 08031B   23337.49016937  .00003779  00000+0  56868-3 0  9993
2 33061  48.4433 107.6732 0004392 149.3835 327.2085 14.76279929831126
ORBCOMM FM29 [-]        
1 33062U 08031C   23337.53613515  .00003833  00000+0  57778-3 0  9996
2 33062  48.4387 115.4575 0006128 144.3155 329.2783 14.76166229831042
ORBCOMM FM39 [-]        
1 33063U 08031D   23337.44774295  .00003336  00000+0  51704-3 0  9991
2 33063  48.4393 135.2731 0006956 117.8880 242.2738 14.75288316830744
